{
  "type": "FeatureCollection",
  "features": [
    {
      "type": "Feature",
      "properties": {
        "id": "RIV-TEESTA",
        "name": "Teesta River",
        "type": "Major River",
        "basin": "Brahmaputra"
      },
      "geometry": {
        "type": "LineString",
        "coordinates": [
          [88.020, 27.910],
          [88.050, 27.850],
          [88.100, 27.700],
          [88.150, 27.500]
        ]
      }
    },
    {
      "type": "Feature",
      "properties": {
        "id": "RIV-DUDHKOSI",
        "name": "Dudh Kosi",
        "type": "Major River",
        "basin": "Ganges"
      },
      "geometry": {
        "type": "LineString",
        "coordinates": [
          [86.920, 27.890],
          [86.850, 27.800],
          [86.800, 27.700],
          [86.750, 27.600]
        ]
      }
    },
    {
      "type": "Feature",
      "properties": {
        "id": "RIV-PARIA",
        "name": "Paria River",
        "type": "River",
        "basin": "Santa"
      },
      "geometry": {
        "type": "LineString",
        "coordinates": [
          [-77.38, -9.39],
          [-77.40, -9.45],
          [-77.45, -9.50],
          [-77.50, -9.55]
        ]
      }
    },
    {
      "type": "Feature",
      "properties": {
        "id": "RIV-TIECHE",
        "name": "Tièche River",
        "type": "River",
        "basin": "Rhone"
      },
      "geometry": {
        "type": "LineString",
        "coordinates": [
          [7.48, 46.38],
          [7.50, 46.35],
          [7.55, 46.30]
        ]
      }
    },
    {
      "type": "Feature",
      "properties": {
        "id": "RIV-HASSANABAD",
        "name": "Hassanabad Nallah",
        "type": "Tributary",
        "basin": "Indus"
      },
      "geometry": {
        "type": "LineString",
        "coordinates": [
          [74.55, 36.42],
          [74.60, 36.40],
          [74.65, 36.35]
        ]
      }
    },
    {
      "type": "Feature",
      "properties": {
        "id": "RIV-PHOCHHU",
        "name": "Pho Chhu",
        "type": "Major River",
        "basin": "Brahmaputra"
      },
      "geometry": {
        "type": "LineString",
        "coordinates": [
          [90.25, 28.05],
          [90.20, 27.95],
          [90.15, 27.85],
          [89.90, 27.60]
        ]
      }
    }
  ]
}
