{
  "type": "FeatureCollection",
  "features": [
    {
      "type": "Feature",
      "properties": {
        "name": "South Lhonak Lake",
        "country": "India",
        "region": "Himalayas",
        "elevation": 5200,
        "area_km2": 1.6,
        "risk": "CRITICAL",
        "glacier_id": "G088020E27910N",
        "last_updated": "Real Time"
      },
      "geometry": {
        "type": "Polygon",
        "coordinates": [
          [
            [88.020, 27.910],
            [88.030, 27.910],
            [88.030, 27.920],
            [88.020, 27.920],
            [88.020, 27.910]
          ]
        ]
      }
    },
    {
      "type": "Feature",
      "properties": {
        "name": "Imja Tsho",
        "country": "Nepal",
        "region": "Himalayas",
        "elevation": 5010,
        "area_km2": 1.2,
        "risk": "HIGH",
        "glacier_id": "G086925E27896N",
        "last_updated": "Real Time"
      },
      "geometry": {
        "type": "Polygon",
        "coordinates": [
          [
            [86.920, 27.890],
            [86.930, 27.890],
            [86.930, 27.900],
            [86.920, 27.900],
            [86.920, 27.890]
          ]
        ]
      }
    },
    {
      "type": "Feature",
      "properties": {
        "name": "Lake Palcacocha",
        "country": "Peru",
        "region": "Andes",
        "elevation": 4566,
        "area_km2": 0.5,
        "risk": "CRITICAL",
        "glacier_id": "G-PALCA",
        "last_updated": "Real Time"
      },
      "geometry": {
        "type": "Polygon",
        "coordinates": [
          [
            [-77.38, -9.39],
            [-77.37, -9.39],
            [-77.37, -9.40],
            [-77.38, -9.40],
            [-77.38, -9.39]
          ]
        ]
      }
    },
    {
      "type": "Feature",
      "properties": {
        "name": "Lake Faverges",
        "country": "Switzerland",
        "region": "Alps",
        "elevation": 2700,
        "area_km2": 0.2,
        "risk": "MODERATE",
        "glacier_id": "G-FAVERG",
        "last_updated": "Real Time"
      },
      "geometry": {
        "type": "Polygon",
        "coordinates": [
          [
            [7.48, 46.38],
            [7.49, 46.38],
            [7.49, 46.39],
            [7.48, 46.39],
            [7.48, 46.38]
          ]
        ]
      }
    },
    {
      "type": "Feature",
      "properties": {
        "name": "Shisper Lake",
        "country": "Pakistan",
        "region": "Karakoram",
        "elevation": 4000,
        "area_km2": 0.8,
        "risk": "HIGH",
        "glacier_id": "G-SHISP",
        "last_updated": "Real Time"
      },
      "geometry": {
        "type": "Polygon",
        "coordinates": [
          [
            [74.55, 36.42],
            [74.56, 36.42],
            [74.56, 36.43],
            [74.55, 36.43],
            [74.55, 36.42]
          ]
        ]
      }
    },
    {
      "type": "Feature",
      "properties": {
        "name": "Thorthormi Lake",
        "country": "Bhutan",
        "region": "Himalayas",
        "elevation": 4428,
        "area_km2": 3.4,
        "risk": "CRITICAL",
        "glacier_id": "G-THORT",
        "last_updated": "Real Time"
      },
      "geometry": {
        "type": "Polygon",
        "coordinates": [
          [
            [90.25, 28.05],
            [90.26, 28.05],
            [90.26, 28.06],
            [90.25, 28.06],
            [90.25, 28.05]
          ]
        ]
      }
    }
  ]
}
